start=new Date('2022-10-14T00:00:00.000Z').valueOf();
sats=[{"RA_OF_ASC_NODE":"276.5394","CENTER_NAME":"EARTH","LAUNCH_DATE":"2020-08-07","MEAN_MOTION_DOT":"0.00003509","TIME_SYSTEM":"UTC","NORAD_CAT_ID":"46081","MEAN_ELEMENT_THEORY":"SGP4","APOAPSIS":"548.974","PERIAPSIS":"545.434","SEMIMAJOR_AXIS":"6925.339","SITE":"AFETR","OBJECT_ID":"2020-055BG","EPHEMERIS_TYPE":"0","FILE":"3609636","REV_AT_EPOCH":"12195","ARG_OF_PERICENTER":"33.1514","COUNTRY_CODE":"US","MEAN_MOTION_DDOT":"0.0000000000000","DECAY_DATE":null,"CLASSIFICATION_TYPE":"U","TLE_LINE1":"1 46081U 20055BG  22286.71498634  .00003509  00000-0  25437-3 0  9994","OBJECT_TYPE":"PAYLOAD","MEAN_ANOMALY":"326.9635","PERIOD":"95.592","TLE_LINE2":"2 46081  53.0549 276.5394 0002556  33.1514 326.9635 15.06403028121959","INCLINATION":"53.0549","MEAN_MOTION":"15.06403028","RCS_SIZE":"LARGE","EPOCH":"2022-10-13T17:09:34.819776","BSTAR":"0.00025437000000","OBJECT_NAME":"STARLINK-1571","ECCENTRICITY":"0.00025560","ELEMENT_SET_NO":"999","REF_FRAME":"TEME","GP_ID":"215024075"},{"MEAN_ELEMENT_THEORY":"SGP4","TIME_SYSTEM":"UTC","NORAD_CAT_ID":"46082","MEAN_MOTION_DOT":"0.00002299","LAUNCH_DATE":"2020-08-07","CENTER_NAME":"EARTH","RA_OF_ASC_NODE":"276.7553","APOAPSIS":"548.318","REV_AT_EPOCH":"12195","FILE":"3609636","OBJECT_ID":"2020-055BH","EPHEMERIS_TYPE":"0","SITE":"AFETR","PERIAPSIS":"546.117","SEMIMAJOR_AXIS":"6925.353","DECAY_DATE":null,"CLASSIFICATION_TYPE":"U","MEAN_MOTION_DDOT":"0.0000000000000","COUNTRY_CODE":"US","ARG_OF_PERICENTER":"58.6226","TLE_LINE1":"1 46082U 20055BH  22286.67076102  .00002299  00000-0  17322-3 0  9991","OBJECT_TYPE":"PAYLOAD","INCLINATION":"53.0539","TLE_LINE2":"2 46082  53.0539 276.7553 0001589  58.6226 301.4918 15.06398616121953","PERIOD":"95.592","MEAN_ANOMALY":"301.4918","OBJECT_NAME":"STARLINK-1578","BSTAR":"0.00017322000000","EPOCH":"2022-10-13T16:05:53.752128","RCS_SIZE":"LARGE","MEAN_MOTION":"15.06398616","GP_ID":"215024326","REF_FRAME":"TEME","ECCENTRICITY":"0.00015890","ELEMENT_SET_NO":"999"},{"APOAPSIS":"548.386","RA_OF_ASC_NODE":"276.5881","LAUNCH_DATE":"2020-08-07","CENTER_NAME":"EARTH","MEAN_MOTION_DOT":"0.00001900","TIME_SYSTEM":"UTC","NORAD_CAT_ID":"46083","MEAN_ELEMENT_THEORY":"SGP4","ARG_OF_PERICENTER":"63.7008","COUNTRY_CODE":"US","MEAN_MOTION_DDOT":"0.0000000000000","DECAY_DATE":null,"CLASSIFICATION_TYPE":"U","PERIAPSIS":"546.098","SEMIMAJOR_AXIS":"6925.377","SITE":"AFETR","EPHEMERIS_TYPE":"0","OBJECT_ID":"2020-055BJ","FILE":"3609636","REV_AT_EPOCH":"12195","MEAN_ANOMALY":"296.4151","PERIOD":"95.593","TLE_LINE2":"2 46083  53.0549 276.5881 0001652  63.7008 296.4151 15.06390701121952","INCLINATION":"53.0549","OBJECT_TYPE":"PAYLOAD","TLE_LINE1":"1 46083U 20055BJ  22286.70762143  .00001900  00000-0  14648-3 0  9999","ELEMENT_SET_NO":"999","ECCENTRICITY":"0.00016520","REF_FRAME":"TEME","GP_ID":"215024562","MEAN_MOTION":"15.06390701","RCS_SIZE":"LARGE","EPOCH":"2022-10-13T16:58:58.491552","BSTAR":"0.00014648000000","OBJECT_NAME":"STARLINK-1579"},{"EPHEMERIS_TYPE":"0","OBJECT_ID":"2020-057A","REV_AT_EPOCH":"11901","FILE":"3609636","PERIAPSIS":"546.316","SEMIMAJOR_AXIS":"6925.386","SITE":"AFETR","MEAN_MOTION_DDOT":"0.0000000000000","CLASSIFICATION_TYPE":"U","DECAY_DATE":null,"ARG_OF_PERICENTER":"99.2514","COUNTRY_CODE":"US","MEAN_MOTION_DOT":"0.00000776","NORAD_CAT_ID":"46117","TIME_SYSTEM":"UTC","MEAN_ELEMENT_THEORY":"SGP4","RA_OF_ASC_NODE":"116.1339","LAUNCH_DATE":"2020-08-18","CENTER_NAME":"EARTH","APOAPSIS":"548.187","EPOCH":"2022-10-13T19:22:17.666688","BSTAR":"0.00007103100000","OBJECT_NAME":"STARLINK-1585","MEAN_MOTION":"15.06387709","RCS_SIZE":"LARGE","REF_FRAME":"TEME","GP_ID":"215025064","ELEMENT_SET_NO":"999","ECCENTRICITY":"0.00013510","TLE_LINE1":"1 46117U 20057A   22286.80714892  .00000776  00000-0  71031-4 0  9998","OBJECT_TYPE":"PAYLOAD","MEAN_ANOMALY":"260.8628","PERIOD":"95.593","TLE_LINE2":"2 46117  53.0556 116.1339 0001351  99.2514 260.8628 15.06387709119019","INCLINATION":"53.0556"},{"APOAPSIS":"548.273","CENTER_NAME":"EARTH","LAUNCH_DATE":"2020-08-18","RA_OF_ASC_NODE":"135.7823","MEAN_ELEMENT_THEORY":"SGP4","MEAN_MOTION_DOT":"0.00014391","TIME_SYSTEM":"UTC","NORAD_CAT_ID":"46118","COUNTRY_CODE":"US","ARG_OF_PERICENTER":"112.9351","CLASSIFICATION_TYPE":"U","DECAY_DATE":null,"MEAN_MOTION_DDOT":"0.0000000000000","SITE":"AFETR","SEMIMAJOR_AXIS":"6925.279","PERIAPSIS":"546.014","FILE":"3609636","REV_AT_EPOCH":"12002","OBJECT_ID":"2020-057B","EPHEMERIS_TYPE":"0","TLE_LINE2":"2 46118  53.0520 135.7823 0001631 112.9351 247.1810 15.06422793120026","INCLINATION":"53.0520","MEAN_ANOMALY":"247.1810","PERIOD":"95.591","TLE_LINE1":"1 46118U 20057B   22286.88269548  .00014391  00000-0  98245-3 0  9993","OBJECT_TYPE":"PAYLOAD","ELEMENT_SET_NO":"999","ECCENTRICITY":"0.00016310","GP_ID":"215023829","REF_FRAME":"TEME","MEAN_MOTION":"15.06422793","RCS_SIZE":"LARGE","BSTAR":"0.00098245000000","OBJECT_NAME":"STARLINK-1588","EPOCH":"2022-10-13T21:11:04.889472"},{"REF_FRAME":"TEME","GP_ID":"215030734","ECCENTRICITY":"0.00011630","ELEMENT_SET_NO":"999","EPOCH":"2022-10-14T00:06:15.008832","BSTAR":"0.00013449000000","OBJECT_NAME":"STARLINK-1593","MEAN_MOTION":"15.06394746","RCS_SIZE":"LARGE","PERIOD":"95.592","MEAN_ANOMALY":"248.6819","INCLINATION":"53.0535","TLE_LINE2":"2 46119  53.0535 135.2406 0001163 111.4294 248.6819 15.06394746119428","OBJECT_TYPE":"PAYLOAD","TLE_LINE1":"1 46119U 20057C   22287.00434038  .00001722  00000-0  13449-3 0  9994","MEAN_MOTION_DDOT":"0.0000000000000","DECAY_DATE":null,"CLASSIFICATION_TYPE":"U","ARG_OF_PERICENTER":"111.4294","COUNTRY_CODE":"US","EPHEMERIS_TYPE":"0","OBJECT_ID":"2020-057C","FILE":"3609705","REV_AT_EPOCH":"11942","SEMIMAJOR_AXIS":"6925.365","PERIAPSIS":"546.424","SITE":"AFETR","APOAPSIS":"548.035","MEAN_MOTION_DOT":"0.00001722","TIME_SYSTEM":"UTC","NORAD_CAT_ID":"46119","MEAN_ELEMENT_THEORY":"SGP4","RA_OF_ASC_NODE":"135.2406","LAUNCH_DATE":"2020-08-18","CENTER_NAME":"EARTH"},{"ELEMENT_SET_NO":"999","ECCENTRICITY":"0.00012550","REF_FRAME":"TEME","GP_ID":"215024330","MEAN_MOTION":"15.06392990","RCS_SIZE":"LARGE","EPOCH":"2022-10-13T20:33:56.751840","BSTAR":"0.00017273000000","OBJECT_NAME":"STARLINK-1601","PERIOD":"95.593","MEAN_ANOMALY":"269.4651","INCLINATION":"53.0551","TLE_LINE2":"2 46120  53.0551 135.9270 0001255  90.6482 269.4651 15.06392990120025","TLE_LINE1":"1 46120U 20057D   22286.85690685  .00002292  00000-0  17273-3 0  9992","OBJECT_TYPE":"PAYLOAD","ARG_OF_PERICENTER":"90.6482","COUNTRY_CODE":"US","MEAN_MOTION_DDOT":"0.0000000000000","DECAY_DATE":null,"CLASSIFICATION_TYPE":"U","PERIAPSIS":"546.366","SEMIMAJOR_AXIS":"6925.370","SITE":"AFETR","OBJECT_ID":"2020-057D","EPHEMERIS_TYPE":"0","FILE":"3609636","REV_AT_EPOCH":"12002","APOAPSIS":"548.104","RA_OF_ASC_NODE":"135.9270","LAUNCH_DATE":"2020-08-18","CENTER_NAME":"EARTH","MEAN_MOTION_DOT":"0.00002292","TIME_SYSTEM":"UTC","NORAD_CAT_ID":"46120","MEAN_ELEMENT_THEORY":"SGP4"},{"BSTAR":"0.00005759900000","OBJECT_NAME":"STARLINK-1602","EPOCH":"2022-10-13T19:48:49.651488","MEAN_MOTION":"15.06389498","RCS_SIZE":"LARGE","GP_ID":"215024566","REF_FRAME":"TEME","ECCENTRICITY":"0.00012620","ELEMENT_SET_NO":"999","TLE_LINE1":"1 46121U 20057E   22286.82557467  .00000576  00000-0  57599-4 0  9999","OBJECT_TYPE":"PAYLOAD","TLE_LINE2":"2 46121  53.0520 116.0613 0001262  86.9317 273.1816 15.06389498119017","INCLINATION":"53.0520","PERIOD":"95.593","MEAN_ANOMALY":"273.1816","REV_AT_EPOCH":"11901","FILE":"3609636","OBJECT_ID":"2020-057E","EPHEMERIS_TYPE":"0","SITE":"AFETR","SEMIMAJOR_AXIS":"6925.381","PERIAPSIS":"546.372","CLASSIFICATION_TYPE":"U","DECAY_DATE":null,"MEAN_MOTION_DDOT":"0.0000000000000","COUNTRY_CODE":"US","ARG_OF_PERICENTER":"86.9317","MEAN_ELEMENT_THEORY":"SGP4","MEAN_MOTION_DOT":"0.00000576","NORAD_CAT_ID":"46121","TIME_SYSTEM":"UTC","CENTER_NAME":"EARTH","LAUNCH_DATE":"2020-08-18","RA_OF_ASC_NODE":"116.0613","APOAPSIS":"548.120"},{"REF_FRAME":"TEME","GP_ID":"215023329","ECCENTRICITY":"0.00013470","ELEMENT_SET_NO":"999","EPOCH":"2022-10-13T18:26:33.046656","OBJECT_NAME":"STARLINK-1604","BSTAR":"0.00048455000000","RCS_SIZE":"LARGE","MEAN_MOTION":"15.06408091","PERIOD":"95.592","MEAN_ANOMALY":"269.1314","INCLINATION":"53.0536","TLE_LINE2":"2 46122  53.0536  96.2965 0001347  90.9829 269.1314 15.06408091120540","OBJECT_TYPE":"PAYLOAD","TLE_LINE1":"1 46122U 20057F   22286.76843804  .00006945  00000-0  48455-3 0  9992","MEAN_MOTION_DDOT":"0.0000000000000","CLASSIFICATION_TYPE":"U","DECAY_DATE":null,"ARG_OF_PERICENTER":"90.9829","COUNTRY_CODE":"US","OBJECT_ID":"2020-057F","EPHEMERIS_TYPE":"0","FILE":"3609636","REV_AT_EPOCH":"12054","PERIAPSIS":"546.256","SEMIMAJOR_AXIS":"6925.324","SITE":"AFETR","APOAPSIS":"548.122","NORAD_CAT_ID":"46122","TIME_SYSTEM":"UTC","MEAN_MOTION_DOT":"0.00006945","MEAN_ELEMENT_THEORY":"SGP4","RA_OF_ASC_NODE":"96.2965","CENTER_NAME":"EARTH","LAUNCH_DATE":"2020-08-18"},{"DECAY_DATE":null,"CLASSIFICATION_TYPE":"U","MEAN_MOTION_DDOT":"0.0000000000000","COUNTRY_CODE":"US","ARG_OF_PERICENTER":"83.9220","REV_AT_EPOCH":"12056","FILE":"3609636","OBJECT_ID":"2020-057G","EPHEMERIS_TYPE":"0","SITE":"AFETR","PERIAPSIS":"546.228","SEMIMAJOR_AXIS":"6925.363","APOAPSIS":"548.229","MEAN_ELEMENT_THEORY":"SGP4","MEAN_MOTION_DOT":"0.00003430","NORAD_CAT_ID":"46123","TIME_SYSTEM":"UTC","CENTER_NAME":"EARTH","LAUNCH_DATE":"2020-08-18","RA_OF_ASC_NODE":"96.3854","GP_ID":"215023579","REF_FRAME":"TEME","ECCENTRICITY":"0.00014450","ELEMENT_SET_NO":"999","BSTAR":"0.00024909000000","OBJECT_NAME":"STARLINK-1605","EPOCH":"2022-10-13T18:05:19.457088","MEAN_MOTION":"15.06395141","RCS_SIZE":"LARGE","TLE_LINE2":"2 46123  53.0555  96.3854 0001445  83.9220 276.1934 15.06395141120565","INCLINATION":"53.0555","MEAN_ANOMALY":"276.1934","PERIOD":"95.592","TLE_LINE1":"1 46123U 20057G   22286.75369742  .00003430  00000-0  24909-3 0  9990","OBJECT_TYPE":"PAYLOAD"}];
